amenity,layer,operator,addr:housenumber,barrier,building:levels,opening_hours,contact:phone,lon,source,email,website,name:lt,phone,lat,smoking,addr:street,building,name,roof:shape,addr:postcode,level,addr:city,healthcare,addr:country
clinic,,,,,,"Mo-Th 07:30-16:00, Fr 07:30-14:00",,24.3257744,,,,,,55.0862988,,,yes,Achemos poliklinika,,,,,,
clinic,,,16,,,Mo-Fr 7:00-19:00; Sa 10:00-14:00,,21.1340669,,pagalba@kraujotyrimai.lt,https://kraujotyrimai.lt/,,+370 700 55 511,55.7202605,,Priestočio g.,yes,Antėja,,,,Klaipėda,clinic,
clinic,,,3,,,,,23.9614139,,,https://www.ausrosmedicinoscentras.lt/,,+370 37 709904,54.9245707,,P. Lukšio g.,yes,Aušros medicinos centras,,,2,Kaunas,,
clinic,,,421,,,,,23.9663685,,,,,,54.9259201,,Savanorių pr.,yes,BMP klinika,,,,Kaunas,,
clinic,,,117,,,,,24.7582851,NŽT ortofoto 2009-2010,,http://www.birzupoliklinika.lt/,,,56.1888296,,Vilniaus g.,yes,Biržų poliklinika,,41115,,Biržai,,
clinic,,,2,,,Mo-Fr 08:00-17:00,,24.3733863,,,,,+370 349 49744,55.2257220,,Jaunystės g.,yes,Bukonių ambulatorija,,55414,,Bukonys,,
clinic,,,,,,,,25.2761665,,,,,,54.6831719,,,public,Centro poliklinika,,,,,,
clinic,,,3,,2,,,25.2770206,,,,,,54.6832331,,Pylimo g.,public,Centro poliklinika,gabled,,,Vilnius,,
clinic,,,3,,,,,21.1585397,,,,,,55.6786685,,Darželio g.,apartments,Gydytojo Isaevo medicinos centras,,,,Klaipėda,,
clinic,,,9,,,,,25.6008960,,,,,,55.4955042,,Utenio a.,yes,"Hiperika, šeimos klinika",,,,Utena,,
clinic,,,13A,,,Mo-Fr 7:00-19:00; Sa 8:00-13:00,,26.1503577,,,,,,55.3420759,,Ligoninės g.,yes,Ignalinos Sveikatos Centras,,,,Ignalina,,
clinic,,,,,,,,24.2715031,,,,,,55.0808448,,,yes,Jonavos ligoninės konsultacinė poliklinika,,,,,,
clinic,,,,,,,,24.2701273,,,,,,55.0794937,no,,yes,Jonavos ligoninės vaikų ligų skyrius,,,,,,
clinic,,,3,,,,,25.6080748,,,,,,56.0885199,,Taikos g.,yes,Juodupės ambulatorija,,,,Juodupė,,LT
clinic,,,9,,2,,,24.0790907,,,http://www.karmelava.eu/node/220,,,54.9750124,,Vilniaus g.,yes,Karmėlavos ambulatorija,,54456,,Karmėlava II,,
clinic,,VšĮ Karoliniškių poliklinika,27A,,7,,,25.2152397,,,http://karpol.lt/,,,54.6919558,,Loretos Asanavičiūtės g.,yes,Karoliniškių poliklinika,,,,Vilnius,,
clinic,,VšĮ Karoliniškių poliklinika,11,,,Mo-Fr 07:00-20:00; Sa 08:00-12:00,,25.1736382,,,http://karpol.lt/,,+370 52 307 114,54.7087479,,Karaliaučiaus g.,yes,Karoliniškių poliklinikos Pilaitės šeimos medicinos skyrius,,,,Vilnius,,
clinic,,,31,,,Mo-Fr 07:30-20:00,,23.9847354,,,https://kaunopoliklinika.lt/,,+370 37 403 900,54.9141282,,Pramonės pr.,yes,Kauno miesto poliklinikos Dainavos padalinys,,,,Kaunas,,
clinic,,,369,,,Mo-Fr 07:30-20:00,,23.9591161,,,https://kaunopoliklinika.lt/,,+370 37 401 422,54.9230319,,Savanorių pr.,yes,Kauno miesto poliklinikos Kalniečių padalinys,,,,Kaunas,,
clinic,,,72,,,Mo-Fr 07:30-20:00,,23.9364988,,,https://kaunopoliklinika.lt/,,+370 37 342 167,54.8730138,,A. Juozapavičiaus pr.,yes,Kauno miesto poliklinikos Šančių padalinys,,45217,,Kaunas,,
clinic,,,4,,,Mo-Fr 07:30-20:00,,23.8207192,,,,,+370 37 377 771,54.9304264,,Chodkevičių g.,yes,Kauno miesto poliklinikos Šilainių padalinio Romainių poskyris,,,,Kaunas,,
clinic,,,76,,,,,21.1639711,,,http://www.klaipedosspc.lt/,,+370 46 496 755,55.6791169,,Taikos pr.,yes,Klaipėdos sveikatos priežiūros centras,,,,Klaipėda,,
clinic,,,13,,,Mo-Fr 8:00-19:00,,21.1344949,,,,,+370 46 484 147,55.7144077,,J. Karoso g.,yes,Klaipėdos vaikų ligoninės konsultacinė poliklinika,,92138,,Klaipėda,,
clinic,,,18,,,,,22.9353670,,,http://www.kursenai-medicina.lt,,+370 41 581 157,56.0042198,,J. Basanavičiaus g.,yes,Kuršėnų poliklinika,,81183,,Kuršėnai,,
clinic,,,8A,,2,,,23.9334883,,,,,,54.9309753,,Šiaurės pr.,yes,Medgintras,,,,Kaunas,,
clinic,,,8C,,2,,,23.9338354,,,,,+370 37 387101,54.9314423,,Šiaurės pr.,yes,Medgintras,,,,Kaunas,,
clinic,,,21,,,Mo-Fr 8:00-16:00,,21.1298916,,,https://kraujotyrimai.lt/,,+370 616 23 356,55.7163282,,Šaulių g.,yes,Medicininių tyrimų laboratorija „Antėja“,,,,Klaipėda,,
clinic,,,245,,,,,23.9365507,,,,,,54.9126201,,Savanorių pr.,yes,Motina ir vaikas,,,,Kaunas,,
clinic,,,4,,,,,21.1278245,,,https://www.rkligonine.lt/odos-ir-veneriniu-ligu-poliklinika,,+370 46 410 587,55.7103455,,Jūros g.,yes,Odos ir venerinių ligų poliklinika,,,,Klaipėda,,
clinic,,,6,,,,,24.3652325,,,,,,55.7336978,,A. Jakšto g.,yes,Panevėžio m. konsultacinė poliklinika,,,,Panevėžys,,
clinic,,,4,,,Mo 8:00-18:00; Tu 8:00-18:00; We 8:00-18:00; Th 8:00-18:00; Fr 8:00-18:00; Sa 8:00-13:00,,23.9438370,,,http://www.prienupspc.lt/?page_id=96,,+370 319 60 156,54.6329533,,Revuonos g.,yes,Prienų PSPC Vaikų poliklinika,,,,Prienai,,
clinic,,,2,,,,,23.9615448,,,,,,54.6313781,,Pušyno g.,yes,Prienų pirminės sveikatos priežiūros centras,,59124,,Prienai,,
clinic,,,49,,,Mo-Fr 8:00-18:00,+370 46 402 344,21.1247203,,,https://www.rkligonine.lt/konsultacine-poliklinika,,+370 46 410 683,55.7202741,,H. Manto g.,yes,"Respublikinė Klaipėdos Ligoninė, VšĮ Konsultacinė poliklinika",,,,Klaipėda,,
clinic,,,3,,2,,,25.2375145,,,https://riesesklinika.lt/,,,54.8097535,,Sporto g.,yes,Riešės šeimos klinika,,,,Riešė,,
clinic,,,1A,,,,,25.5813302,,,,,,55.9687664,,Juodupės g.,yes,Rokiškio pirminės asmens sveikatos priežiūros centras,,,,Rokiškis,,
clinic,,,27,,,,,25.2866592,,,,,,54.7313516,,Pušyno kel.,yes,"Sanatorija „Pušyno kelias“, vaikų skyrius",,,,Vilnius,,
clinic,,,51B,,,,,23.9627459,,,,,,54.9122128,,Taikos pr.,yes,Saulės Šeimos medicinos centras,,,,Kaunas,,LT
clinic,,,27D,,,,,23.9599959,,saulescentras@gmail.com,https://www.saulescentras.lt/,,+370 37 244942,54.9215235,,Partizanų g.,yes,Saulės šeimos medicinos centras,,,,Kaunas,,
clinic,,,54,,,,,25.5973730,,,,,,55.4980503,,J. Basanavičiaus g.,yes,Sveikatos centras Šalavijas,,,,Utena,,LT
clinic,,,5,,,,,23.9397099,,,,,,54.9040412,,J. Basanavičiaus al.,yes,"UAB Mezoderma, dermatologija, estetinė medicina",,,,Kaunas,,
clinic,,,48B,,,Mo-Fr 08:00-19:00,,21.1500696,,,https://uostopoliklinika.lt/,,+37064021277,55.6941986,,Taikos pr.,yes,Uosto poliklinika,,,,Klaipėda,clinic,
clinic,,,5,,,,,25.5908272,,,,,,55.5090118,,Aukštakalnio g.,hospital,Utenos pirminės sveikatos priežiūros centras,,28151,,Utena,,
clinic,1,,2,,,,,23.0315022,,,,,,54.6502338,,P. Jašinsko g.,yes,Vilkaviškio poliklinika,,70103,,Vilkaviškis,,
clinic,,,80,,,,,24.7530951,,,,,,55.2448065,,Kauno g.,yes,Vilkmergės klinika,,20115,,Ukmergė,,
clinic,,,18,,,"Mo-Fr 07:00-20:00, Sa 08:00-12:00",,25.2750392,,,,Vilniaus m. Naujininkų poliklinika,,54.6607548,,Dariaus ir Girėno g.,yes,Vilniaus m. Naujininkų poliklinika,,,,Vilnius,,
clinic,,,48,,,,,25.3046389,,,,,,54.7410520,,Svajonių g.,yes,Vitkus Clinic,,,,Vilnius,clinic,
clinic,,,10A,,,Mo-Th 8:00-19:00; Fr 8:00-18:00 (registratūra) Fr 8:00-19:00 (baseinas),,21.1512392,,,https://www.vetrungesklinika.lt/,,+370 46 410 570,55.6994164,,Paryžiaus Komunos g.,yes,Vėtrungės klinika,,,,Klaipėda,clinic,
clinic,,,86,,,,,25.4719822,,,http://www.nempol.lt/,,,54.8528123,,Švenčionių g.,hospital,VŠĮ Vilniaus rajono Nemenčinės poliklinika,,15168,,Nemenčinė,,
clinic,,,46,,,Mo-Fr 8:00-20:00; Sa 9:00-13:00,,21.1492715,,,http://www.jspc.lt/,,+370 46 383 460,55.6942736,,Taikos pr.,yes,VšĮ Jūrininkų sveikatos priežiūros centras,,91213,,Klaipėda,,
clinic,,,4,,,,,26.2555492,,,,,,55.7329190,,Malūno g.,yes,Zarasų pirminės sveikatos priežiūros centras,,,,Zarasai,,LT
clinic,,,423,,,,,23.9667269,,,,,,54.9260783,,Savanorių pr.,yes,Šeimos klinika,,,,Kaunas,,
clinic,,,6,,,,,21.1575837,,,http://jolsana.lt/,,,55.6730687,,Deimės g.,house,„Jolsana“ medicinos centras,,,,Klaipėda,,
