amenity,drive_through,office,contact:website,name:pt,payment:debit_cards,wikidata,alt_name,operator,brand:wikipedia,addr:housenumber,TIPO,building:levels,opening_hours,contact:phone,lon,access,source,brand:wikidata,covered,addr:street,email,highway,website,addr:unit,fax,emergency,contact:email,payment:cash,brand,phone,old_name,lat,addr:city,building,contact:facebook,name,NOME,addr:postcode,wheelchair,level,addr:place,dispensing,healthcare,addr:country
pharmacy,,,,,,,,,,,,,"Mo-Fr 09:00-20:00; Sa 09:00-13:00, 15:00-20:00; Su 10:30-13:00, 15:00-20:00",,-8.0846497,,,,,,,,,,,,,,,,,37.7015124,,yes,,Alentejana,,,designated,,,,,
pharmacy,,,,,,,,,,,,,,,-8.6131914,,,,,,,,,,,,,,,,,41.1480420,,yes,,Campos Costa Radiologia,,,,,,,,
pharmacy,,,,,,,,,,,,,,,-8.6180969,,,,,,,,,,,,,,,,,41.1499819,,yes,,Centro de Fisioterapia do Porto,,,,,,,,
pharmacy,,,,,,,,,,,,,,,-8.6116184,,,,,,,,,,,,,,,,,41.1530284,,yes,,Corporación Dermoestética,,,,,,,,
pharmacy,,,,,,,,,,,,,,,-8.6085450,,,,,,,,,,,,,,,,,41.1506094,,yes,,Ervanária Moinho d'Água,,,,,,,,
pharmacy,,,,,,,,,,,,,,,-8.6085049,,,,,,,,,,,,,,,,,41.1510073,,yes,,Ervanário Portuense,,,,,,,,
pharmacy,,,,,,,,,,,,,,,-7.7844753,,,,,,,,,,,,,,,,,41.8307798,,yes,,Famácia Martins,,,,,,yes,pharmacy,
pharmacy,,,,,,,,,en:Farmacias Benavides,,,,,,-8.4870129,,,Q5435613,,,,,,,,no,,,Farmacia Benavides,,,41.5078561,,yes,,Farmacia Benavides,,,,,,yes,pharmacy,
pharmacy,,,,,,,,,,,,,,,-9.2590578,,,,,Largo do Mercado,,,,,,,,,,,,38.7587252,Queluz,yes,,Farmacia Correia,,,,,,yes,pharmacy,
pharmacy,,,,,,,,,,,,,Mo-Su 09:00-20:00; Sa 09:00-15:00,,-7.5027027,,,,,,,,,,,,,,,,,40.1360814,,apartments,,Farmacia Diamantino,,,,,,yes,,
pharmacy,,,,,,,,,,,,,,,-8.1651164,,,,,,,,,,,,,,,,,37.8773579,,,,Farmacia Dias,,,,,,,,
pharmacy,,,,,,,,,,,,,,,-8.7916573,,,,,,,,,,,,,,,,,39.0269259,,yes,,Farmacia Martins,,,,,,yes,pharmacy,
pharmacy,,,,,,,,,,,,,,,-8.3677787,,,,,,,,,,,,,,,,,41.3089843,,yes,,Farmacia Neves,,,,,,,,
pharmacy,,,,,,,,,,,,,,,-8.1633099,,,,,,,,,,,,,,,,,37.8798172,,,,Farmacia Pereira,,,,,,,,
pharmacy,,,,,,,,,,,,,,,-8.4549643,,,,,,,,,,,,,,,,,38.6775947,,yes,,Farmacia Ribeiro,,,,,,yes,pharmacy,
pharmacy,,,,,,,,,,,,,,,-8.9257517,,,,,,,,,,,,,,,,,39.7483984,,,,Farmacia Roldao,,,,,,no,pharmacy,
pharmacy,,,,,,,,,,,,,Mo-Fr 09:00-20:00; Sa 09:00-13:00,,-7.4996823,,,,,,,,,,,,,,,,,40.1368875,,house,,Farmacia Taborda,,,,,,yes,,
pharmacy,,,,,,,,,,,,,Mo-Fr 09:00-20:00; Sa 09:00-13:00,,-7.4998442,,,,,,,,,,,,,,,,,40.1372587,,apartments,,Farmacia Vitoria,,,,,,yes,,
pharmacy,,,,,,,,,,,,,,,-9.2556050,,,,,,,,,,,,,,,,,38.7549057,,yes,,Farmacia Zeller,,,,,,yes,pharmacy,
pharmacy,,,,,,,,,,,,,,,-8.6908561,,,,,,,,,,,,,,,,,41.2943587,,yes,,Farmacia da Árvore,,,,,,,,
pharmacy,,,,,,,,,es:Farmacity,,,,,,-9.0494248,,,Q5856076,,,,,,,,,,,Farmacity,,,39.3680404,,yes,,Farmacity,,,,,,yes,pharmacy,
pharmacy,,,,,,,,,es:Farmacity,,,,,,-8.4179899,,,Q5856076,,,,,,,,,,,Farmacity,,,38.0718883,,yes,,Farmacity,,,,,,yes,pharmacy,
pharmacy,,,,,,,,,,,,,,,-7.7749069,,,,,,,,,,,,,,,,,37.9361037,,yes,,Farmácia,,,,,,,,
pharmacy,,,,,,,,,,,,,,,-8.6906207,,,,,,,,,,,,,,,,,41.6444393,,,,Farmácia,,,,,,,,
pharmacy,,,,,,,,,,,,1,,,-8.5853497,,,,,Rua Bernardino Marques,,,,,,,,,,,,40.0044216,Redinha,yes,,Farmácia,,,,,,,,
pharmacy,,,,,,,,,,2-18,,,,,-8.6133057,,,,,Rua da Conceição,,,http://www.farmacia-alianca.com,,,,,,,,,41.1501374,Porto,yes,,Farmácia Aliança,,,,,,,,
pharmacy,,,,,,,,,,,,,,,-8.6074837,,,,,,,,,,,,,,,,Farmácia do Bolhão,41.1486095,,yes,,Farmácia Almeida Cunha,,,,,,yes,,
pharmacy,,,,,,,,,,,,,,,-8.6084882,,,,,,,,,,,,,,,,,41.1513431,,yes,,Farmácia Antunes,,,,,,yes,,
pharmacy,,,,,,,,,,,,,,,-8.5477040,,,,,Rua António Castro Côrte Real,,,,,,,,,,,,40.9254117,,,,Farmácia Araújo,,,,,,no,,
pharmacy,,,,,,,,,,,,,24/7,,-8.8638532,,,,,,,,,,,,,,,,,37.9576088,,yes,,Farmácia Atlântico,,,,,,,,
pharmacy,,,,,,,,,,,,,,,-8.6437192,,,,,,,,,,,,,,,,,41.1606971,,yes,,Farmácia Avenida,,,,,,,,
pharmacy,,insurance,,,,,,,,,,,Mo-Fr 09:00-20:00; Sa 09:00-13:00,,-7.4993054,,,,,,,,,,,,,,,,,40.1396944,,yes,,Farmácia Avenida,,,,,,,,
pharmacy,,,,,,,,,,,,,,,-25.1414050,,,,,Av. Santa Maria,,,,,,,,,,,,36.9571309,Vila do Porto,yes,,Farmácia Avenida Santa Maria,,9580-501,,,,,,
pharmacy,,,,,,,,,,,URBANO,,,,-6.9627010,,,,,,,,,,,,,,,,,40.8951120,,house,,Farmácia Bordalo,FIGUEIRA DE CASTELO RODRIGO,,,,,,,
pharmacy,no,,,,yes,,,,,,,,24/7,,-8.4067523,,,,,Rua Frei Bartolomeu dos Mártires,,,,,,,,yes,,,,41.5511001,Braga,yes,,Farmácia Braga,,4715-384,,,,yes,pharmacy,
pharmacy,,,,,,,,,,,,,,,-8.7984721,,,,,,,,,,,,,,,,,41.6253411,,yes,,Farmácia Brás Marques,,,,,,,,
pharmacy,,,,,,,,,,,,,,,-8.0794570,,,,,,,,,,,,,,,,,41.2749201,,yes,,Farmácia Campo da Feira,,,,,,,,
pharmacy,,,,,,,,,,,,,,,-8.6222510,,,,,,,,,,,,,,,,,41.1477642,,yes,,Farmácia Cardona Santos,,,,,,yes,,
pharmacy,,,,,,,,,,1,,,Mo-Fr 09:00-19:00;Sa 09:00-13:00,,-7.2678531,,,,,Largo Doutor João Almeida,,,http://farmaciacentralguarda.pai.pt/,,,,,,,+351 271 211 972,,40.5381656,Guarda,yes,,Farmácia Central,,6300-695,,,,,,
pharmacy,,,,,,,,,,,,,,,-7.0844984,,,,,,,,,,,,,,,,,40.3496913,,,,Farmácia Central,,,,,,yes,pharmacy,
pharmacy,,,,,,,,,,,,,,,-8.6417802,,Local K,,,,,,,,,,,,,,,37.5967427,,house,,Farmácia Central,,,,,,,,
pharmacy,,,,,,,,,,,,,,,-7.4555445,,,,,,,,,,,,,,,,,38.8049505,,yes,,Farmácia Central,,,,,,yes,pharmacy,
pharmacy,,,,,,,,,,,,,,,-8.6077881,,,,,,,,,,,,,,,,,41.1463817,,,,Farmácia Central do Porto,,,,,,yes,,
pharmacy,,,,,,,,,,,,,,,-8.4834644,,,,,,,,,,,,,,,,,40.7630148,,,,Farmácia Confiança,,,,,,yes,,
pharmacy,,,,,,,,,,,,,Mo-Fr 09:00-19:30; Sa 09:00-13:00,,-8.6046318,,,,,,,,,,,,,,,,,41.1547059,,yes,,Farmácia Confiança,,,,,,yes,,
pharmacy,,,,,,,,,,,,,,,-7.4561113,,,,,,,,,,,,,,,,,38.8062495,,yes,,Farmácia Cortes,,,,,,yes,pharmacy,
pharmacy,,,,,,,,,,,,,,,-8.6840374,,,,,,,,,,,,,,,,,41.3777608,,yes,,Farmácia Costa,,,,,,yes,,
pharmacy,,,,,,,,,,,,,,,-8.3637362,,Bing,,,,,,,,,,,,,,,41.2315237,,yes,,Farmácia Cristelo,,,,,,,,
pharmacy,,,,,,,,,,,,,,,-8.7504664,,,,,,,,,,,,,,,,,39.7602518,,yes,,Farmácia David,,,,,,,pharmacy,
pharmacy,,,,,,,,,,,,,,,-8.4004373,,,,,,,,,,,,,,,,,40.4896554,,,,Farmácia Duarte,,,,,,,,
pharmacy,,,https://www.facebook.com/Farmacia-Estacio-Xabregas-1711644005725577,,,,,,,1,,,Mo-Sa 09:00-21:00; Su 10:00-20:00,+351 213 225 540,-9.1126242,,,,,Rua Bispo de Cochim,,,,,,,farmacia.estacio.xabregas@gmail.com,,,,,38.7243475,,yes,,Farmácia Estácio Xabregas,,,,,,yes,,
pharmacy,,,,,,,,,,,,,,,-8.2979500,,,,,,,,,,,,,,,,,40.7995267,,,,Farmácia Fernandes,,,,,,,,
pharmacy,,,,,,,,,,,,,,,-8.5085209,,,,,,,,,,,,,,,,,40.6214566,,yes,,Farmácia Ferreira,,,,,,no,,
pharmacy,,,,,,,,,,,,,,,-8.6094578,,,,,,,,,,,,,,,,,41.1493083,,yes,,Farmácia Ferreira Carvalho,,,,,,yes,,
pharmacy,,,,,,,,,,,,,,,-7.4909921,,,,,,,,,,,,,,,,,39.8257056,,yes,,Farmácia Ferrer,,,,,,,pharmacy,
pharmacy,,,,,,,,,,,,,,,-8.6167649,,,,,,,,,,,,,,,,,41.1500362,,yes,,Farmácia Figueiredo,,,,,,yes,,
pharmacy,,,,,,,,,,99,,,Mo-Fr 09:00-19:30; Sa 09:00-13:00,,-8.6023836,,,,,Rua da Firmeza,,,,,,,,,,,,41.1509557,Porto,yes,,Farmácia Firmeza,,4000-228,,,,yes,,PT
pharmacy,,,,,,,,,,,,,,,-16.8042292,,,,,,,,,,,,,,,,,32.6688514,,yes,,Farmácia Gaula,,,,,,yes,pharmacy,
pharmacy,,,,,,,,,,69,,,,,-7.4910796,,,,,Rua de Santo António,,,,,,,,,,+351 272 344 542,,39.8245912,Castelo Branco,yes,,Farmácia Grave,,6000-180,,,,,,
pharmacy,,,,,,,,,,,,,,,-8.6147468,,,,,,,,,,,,,,,,,41.1479694,,yes,,Farmácia Guilherme Fernandes,,,,,,yes,,
pharmacy,,,,остановка тур автобуса. 18евро день,,,,,,,,,,,-8.6062924,,,,,,,,,,,,,,,,,41.1445711,,yes,,Farmácia Herculano,,,,,,yes,,
pharmacy,,,,,,,,,,135,,,,,-27.2191335,,,,,Rua Direita,,,,,,,,,,,,38.6557667,Angra do Heroismo,shop,,Farmácia Lisboa,,9700-066,,,,yes,,
pharmacy,,,,,,,,,,14,,,Mo-Su 08:00-24:00,,-7.7564957,,,,,Rua da Estremadura,farmacialordelo@farmacialordelo.com,,https://www.farmacialordelo.com/,,,,,,,+351 259 341031,,41.3069898,Vila Real,yes,,Farmácia Lordelo,,5000-546,yes,,,yes,pharmacy,
pharmacy,,,,,,,,,,,,,,,-7.7079956,,,,,,,,,,,,,,,,,40.4155510,,yes,,Farmácia Manaia,,,,,,yes,pharmacy,
pharmacy,,,,,,,,,,,,,,,-8.3218660,,,,,Rua Catarina Eufémia,,,,,,,,,,+351 266 877 665,,38.7209151,,yes,,Farmácia Mayer,,,,,,yes,,
pharmacy,,,,,,,,,,,,,,,-8.3745559,,Bing,,,,,,,,,,,,,,,41.2773000,,yes,,Farmácia Moderna,,,,,,,,
pharmacy,,,,,,,,,,,,,,,-8.7735453,,,,,,,,,,,,,,,,,41.6289682,,yes,,Farmácia Moreira,,,,,,,,
pharmacy,,,,,,,,,,23,,,,,-7.8413407,,,,,Rua da Igreja,,,,,,,,,,,,38.8318474,Vimieiro,yes,,Farmácia Moreira,,7040,,,,,pharmacy,
pharmacy,yes,,,,,,,,,,,,,,-8.4836926,,,,,Rua de Santo António,,,,,,,,,,,,39.5517404,Soudos,yes,,Farmácia Nascimento,,2350-201,,,,,,
pharmacy,,,,,,,,,,,,,,,-8.4863161,,,,,,,,,,,,,,,,,39.4019062,,yes,,Farmácia Oliveira Freire,,,,,,yes,,
pharmacy,,,,,,,,,,,,,,,-8.8402426,,,,,,,,,,,,,,,,,39.8287839,,yes,,Farmácia Ortigosa,,,,,,,,
pharmacy,,,,,,,,,,,,,,,-8.6809634,,,,,,,,,,,,,,,,,41.3794200,,,,Farmácia Padrão,,,,,,no,,
pharmacy,,,,,,,,,,26,,,Mo-Fr 09:00-19:00; Sa 09:00-13:00,,-7.4756780,,,,,Avenida de Santo Amaro,farmaciapfiles@gmail.com,,,,,,,,,+351 276 318816,,41.7388120,Chaves,,https://www.facebook.com/pg/Farm%C3%A1cia-Paula-Files-305936952865804/,Farmácia Paula Files,,5400-055,,,,yes,,
pharmacy,,,,,,,,,,,,,,,-16.8290547,,,,,,,,,,,,,,,,,32.7711151,,,,Farmácia Penha d'Aguia,,,,,,no,,
pharmacy,,,,,,,,,,,,,,,-9.1406898,,,,,Rua Doutor Augusto Saudade Silva,,,,,,,,,,,,39.4045388,Caldas da Rainha,yes,,Farmácia Perdigão,,2500-116,,,,yes,pharmacy,
pharmacy,,,,,,,,,,,,,,,-7.4788267,,,,,,,,,,,,,,,,,39.8256833,,yes,,Farmácia Pereira Rebelo,,,,,,,pharmacy,
pharmacy,,,,,,,,,,,,,,,-8.3580415,,,,,,,,,,,,,,,,,41.0382382,,yes,,Farmácia Pinho Lopes,,,,,,,,
pharmacy,,,,,,,,,,,,,,,-8.0212801,,,,,,,,,,,,,,,,,37.1389033,,yes,,Farmácia Pinto,,,,,,yes,pharmacy,
pharmacy,,,,,,,,,,44 e 46,,,"09:00-13:00,15:00-19:00",,-16.9762991,,,,,Rua São João de Deus,,,,,,,,,,,,32.6489241,Câmara de Lobos,yes,,Farmácia Popular,,9300,,,,,,
pharmacy,,,,,,,,,,,,,,,-8.4007415,,,,,,,,,,,,,,,,,37.1267573,,yes,,Farmácia Porches,,,,,,yes,pharmacy,
pharmacy,,,,,,,,,,,,,,,-8.6151884,,,,,,,,,,,,,,,,,41.1453930,,yes,,Farmácia Porta do Olival,,,,,,,,
pharmacy,,,,,,,,,,,,,,,-8.6277210,,,,,,,,,,,,,,,,,41.0495263,,,,Farmácia Portuense,,,,,,yes,,
pharmacy,,,,,,,,,,,,,,,-7.2261445,,,,,,,,,,,,,,,,,38.2107572,,,,Farmácia Portugal,,,,,,,,
pharmacy,,,,,,,,,,,,,Tu-Su 08:00-15:00;Sa 08:00-12:00,,-8.3340774,,,,,,,,,,,,,,,,,41.2068784,,yes,,Farmácia Ruão,,,,,,yes,,
pharmacy,,,,,,,,Farmácia S. Bento,,17,,2,09:00-20:00,,-27.2100351,,,,,Largo de S.Bento,,,,,,,,,,+351295213299,,38.6602501,Angra do Heroísmo,commercial,,Farmácia S. Bento,,,,,S. Bento,yes,,
pharmacy,,,,,,,,,,,,,Mo-Su 08:30-21:00,,-9.1148336,,,,,,,,,,,,,,,,,38.7984874,,yes,,Farmácia Sacavém,,,,,,yes,pharmacy,
pharmacy,,,,,,,,,,,,,,,-8.2767637,,,,,,,,,,,,,,,,,41.2718437,,,,Farmácia Silva Rocha Unip. Lda,,,,,,,,
pharmacy,,,,,,,,,,2,,,,,-9.3487290,,,,,Estrada de Mem Martins,memmartins@farmaciasilveira.com,,http://www.farmaciasilveira.com/,,219 229 165,,,,,219 229 045,,38.7804251,Mem Martins,commercial,,Farmácia Silveira,,2725-109,,,,,,PT
pharmacy,,,,,,,,,,,,,,,-7.4673276,,,,,,,,,,,,,,,,,40.0969468,,,,Farmácia Trindade Lourenço,,,,,,,,
pharmacy,no,,,,,,,,,,,,24/7,,-8.7009633,,,,,Rua João Pinto Figueiredo,,,,,,,,,,,,39.0496960,Marinhais,yes,,Farmácia União,,2125-181,,,,yes,pharmacy,
pharmacy,,,,,,,,,,,,,,,-7.4317473,,,,,,,,,,,,,,,,,40.1109416,,yes,,Farmácia Vale de Prazeres,,,,,,,,
pharmacy,,,,,,,,,,,,,,,-25.6587609,,,,,,,,,,,,,,,,,37.7515319,,apartments,,Farmácia da Associação de Socorros Mútuos,,,,,,,,
pharmacy,,,,,,,,,,,,,,,-16.8457791,,,,,,,,,,,,,,,,,32.6805249,,yes,,Farmácia da Camacha,,,,,,,,
pharmacy,,,,,,,,,,380 382,,,,,-8.6774744,,,,,Rua da Senhora da Luz,,,,,,,,,,,,41.1522899,Porto,yes,,Farmácia da Foz,,4150-694,,,,yes,pharmacy,
pharmacy,,,,,,,Farmácia da Madalena,,,,,,,,-16.9313068,,,,,,,,,,,,,,,,,32.6599231,,,,Farmácia da Madalena,,,,,,,,
pharmacy,,,,,,,,,,,,,,,-7.9127927,,,,,,,,,324,,,,,,,,40.6528631,,yes,,Farmácia da Misericórdia,,,,,,,pharmacy,
pharmacy,,,,,,,,,,,,,,,-8.6101904,,,,,,,,,,,,,,,,,41.1516756,,hospital,,Farmácia da Ordem da Trindade,,,,,,yes,,
pharmacy,,,,,,,,,,,,,09:00-19:00,,-8.9295537,,,,,Rua 5 de Outubro - Vieira de Leiria,,,,,,,,,,,,39.8699493,Marinha Grande,yes,,Farmácia da Praia,,,,,,,,
pharmacy,,,,,,,,,,188,,,,,-9.4199621,,,,,Rua de Alvide,,,,,,,,,,,,38.7086677,Cascais,yes,,Farmácia das Fontaínhas,,,,,,,pharmacy,
pharmacy,,,,,,,,,,,,,,,-8.6403139,,Bing,,,,,,,,,,,,,,,41.0833693,,yes,,Farmácia de Francelos,,,,,,yes,,
pharmacy,,,,,,,,,,,,,,,-8.6546015,,,,,,,,,,,,,,,,,41.1727998,,yes,,Farmácia de Pereiró,,,,,,,,
pharmacy,,,,,,,,,,,,,09:00-19:30,,-17.1935507,,,,,,,,,,,,,,,,,32.7332506,,,,Farmácia do Estreito da Calheta,,,yes,,,yes,,
pharmacy,,,,,,,,,,,,,,,-8.4610272,,,,,,,,,,,,,,,,,40.1953619,,hospital,,Farmácia dos Covões,,,,,,,,
pharmacy,no,,,,,,,,,,,,,,-8.0602401,,,,,,,,,,,,,,,,,37.5125088,,yes,,Farmácia Áurea,,,,,,yes,pharmacy,
pharmacy,,,,,,,,,,,,,,,-7.4301709,,,,,,,,,,,,,,,,,40.1590608,,,,Juca_Farma,,,,,,yes,,
pharmacy,,,,,,Q1410441,,,,,,,,,-7.7259011,,,,,,,,,,,,,,,,,41.2981589,,yes,,Mateus,,,,,,,,
pharmacy,,,,,,,,,,,,,,,-8.4359614,,,,,,,,,,,,,,,,,39.9135197,,yes,,Moniz Nogueira,,,,,,,pharmacy,
pharmacy,,,,,,,,,,,,,,,-7.9032375,,,,,,,,,,,,,,,,,40.5036690,,,,Pelourinho,,,,,,,,
pharmacy,,,,,,,,,,,,,Segunda a Sexta-Feira das 09h00 às 18h00 / Sábado das 09h00 às 13h00,,-25.2657036,,http://cmnordeste.pt,,,Rua do Ramal,,,,,,,,,,+351 296 452187,,37.8510955,Achada,yes,,Posto Farmacêutico da Santa Casa da Misericórdia da Achada,,9630,,,,,,
pharmacy,,,,,,,,,,,,,,,-8.0468872,,,,,,,,,,,,,,,,,37.2412368,,yes,,Posto Farmacêutico de Salir,,,,,,yes,pharmacy,
pharmacy,,,,,,,,Farmácia,,,,,,,-31.1129789,,,,,,,,,,,,,,,,,39.6729627,,yes,,Posto da Farmácia da Santa Casa da Misericórdia,,,,,,,,
pharmacy,,,,,,,,,,,,,,,-27.2697077,,Field work,,,,,,,,,,,,,,,38.6568554,,,,São Mateus's Pharmacy ,,,,,,,,
pharmacy,,,,,,,,,,,,,,,-8.6148404,,,,,,,,,,,,,,,,,40.6495627,,,,Wells,,,,0,,no,,
